{"type": "FeatureCollection", "features": [ {"type": "Feature", "properties": {"norad_id": 66579, "name": "STARLINK-35868", "group": "last-30-days", "lat": 36.2219911335133, "lon": -99.77727689582638, "alt_km": 410.2904670511198, "timestamp": "2025-12-10T20:49:51.345206+00:00", "meta": {"OBJECT_NAME": "STARLINK-35868", "OBJECT_ID": "2025-268Y", "EPOCH": "2025-12-10T14:00:03.000384", "MEAN_MOTION": 15.50578364, "ECCENTRICITY": 0.0001743, "INCLINATION": 43.0003, "RA_OF_ASC_NODE": 133.7048, "ARG_OF_PERICENTER": 263.671, "MEAN_ANOMALY": 65.7294, "EPHEMERIS_TYPE": 0, "CLASSIFICATION_TYPE": "U", "NORAD_CAT_ID": 66579, "ELEMENT_SET_NO": 999, "REV_AT_EPOCH": 432, "BSTAR": -0.00051915237, "MEAN_MOTION_DOT": -0.00030679, "MEAN_MOTION_DDOT": 0}, "tle": {"line1": "1 66579U 25268Y   25344.58336806 -.00030679  00000+0 -51915-3 0  9993", "line2": "2 66579  43.0003 133.7048 0001743 263.6710  65.7294 15.50578364  4327"}}, "geometry": {"type": "Point", "coordinates": [-99.77727689582638, 36.2219911335133]}}, {"type": "Feature", "properties": {"norad_id": 66580, "name": "STARLINK-35872", "group": "last-30-days", "lat": 35.39154772250982, "lon": -97.63947409109169, "alt_km": 410.37727529759013, "timestamp": "2025-12-10T20:49:51.345216+00:00", "meta": {"OBJECT_NAME": "STARLINK-35872", "OBJECT_ID": "2025-268Z", "EPOCH": "2025-12-10T14:00:03.000384", "MEAN_MOTION": 15.50609552, "ECCENTRICITY": 0.00016325, "INCLINATION": 43.0002, "RA_OF_ASC_NODE": 133.7013, "ARG_OF_PERICENTER": 265.7033, "MEAN_ANOMALY": 65.6052, "EPHEMERIS_TYPE": 0, "CLASSIFICATION_TYPE": "U", "NORAD_CAT_ID": 66580, "ELEMENT_SET_NO": 999, "REV_AT_EPOCH": 432, "BSTAR": -0.0015946075, "MEAN_MOTION_DOT": -0.0009289, "MEAN_MOTION_DDOT": 0}, "tle": {"line1": "1 66580U 25268Z   25344.58336806 -.00092890  00000+0 -15946-2 0  9991", "line2": "2 66580  43.0002 133.7013 0001632 265.7033  65.6052 15.50609552  4323"}}, "geometry": {"type": "Point", "coordinates": [-97.63947409109169, 35.39154772250982]}}, {"type": "Feature", "properties": {"norad_id": 66581, "name": "STARLINK-35744", "group": "last-30-days", "lat": 34.50944989845093, "lon": -95.51464534875343, "alt_km": 410.46651258942165, "timestamp": "2025-12-10T20:49:51.345229+00:00", "meta": {"OBJECT_NAME": "STARLINK-35744", "OBJECT_ID": "2025-268AA", "EPOCH": "2025-12-10T14:00:03.000384", "MEAN_MOTION": 15.50599265, "ECCENTRICITY": 0.0001484, "INCLINATION": 43.0002, "RA_OF_ASC_NODE": 133.6948, "ARG_OF_PERICENTER": 263.6962, "MEAN_ANOMALY": 69.5848, "EPHEMERIS_TYPE": 0, "CLASSIFICATION_TYPE": "U", "NORAD_CAT_ID": 66581, "ELEMENT_SET_NO": 999, "REV_AT_EPOCH": 427, "BSTAR": -0.0020284542, "MEAN_MOTION_DOT": -0.00117656, "MEAN_MOTION_DDOT": 0}, "tle": {"line1": "1 66581U 25268AA  25344.58336806 -.00117656  00000+0 -20285-2 0  9992", "line2": "2 66581  43.0002 133.6948 0001484 263.6962  69.5848 15.50599265  4272"}}, "geometry": {"type": "Point", "coordinates": [-95.51464534875343, 34.50944989845093]}}, {"type": "Feature", "properties": {"norad_id": 66582, "name": "STARLINK-35746", "group": "last-30-days", "lat": 33.625773957041915, "lon": -93.51004043441289, "alt_km": 410.6915162983323, "timestamp": "2025-12-10T20:49:51.345239+00:00", "meta": {"OBJECT_NAME": "STARLINK-35746", "OBJECT_ID": "2025-268AB", "EPOCH": "2025-12-10T14:00:03.000384", "MEAN_MOTION": 15.50625328, "ECCENTRICITY": 0.00017278, "INCLINATION": 43.0002, "RA_OF_ASC_NODE": 133.6902, "ARG_OF_PERICENTER": 266.944, "MEAN_ANOMALY": 68.1958, "EPHEMERIS_TYPE": 0, "CLASSIFICATION_TYPE": "U", "NORAD_CAT_ID": 66582, "ELEMENT_SET_NO": 999, "REV_AT_EPOCH": 432, "BSTAR": -0.0021483207, "MEAN_MOTION_DOT": -0.00124597, "MEAN_MOTION_DDOT": 0}, "tle": {"line1": "1 66582U 25268AB  25344.58336806 -.00124597  00000+0 -21483-2 0  9996", "line2": "2 66582  43.0002 133.6902 0001727 266.9440  68.1958 15.50625328  4323"}}, "geometry": {"type": "Point", "coordinates": [-93.51004043441289, 33.625773957041915]}}, {"type": "Feature", "properties": {"norad_id": 66583, "name": "STARLINK-35941", "group": "last-30-days", "lat": 32.695424479600746, "lon": -91.51638225858512, "alt_km": 410.82111367936886, "timestamp": "2025-12-10T20:49:51.345249+00:00", "meta": {"OBJECT_NAME": "STARLINK-35941", "OBJECT_ID": "2025-268AC", "EPOCH": "2025-12-10T14:00:03.000384", "MEAN_MOTION": 15.50590492, "ECCENTRICITY": 0.0001723, "INCLINATION": 42.9999, "RA_OF_ASC_NODE": 133.6856, "ARG_OF_PERICENTER": 268.755, "MEAN_ANOMALY": 68.3119, "EPHEMERIS_TYPE": 0, "CLASSIFICATION_TYPE": "U", "NORAD_CAT_ID": 66583, "ELEMENT_SET_NO": 999, "REV_AT_EPOCH": 432, "BSTAR": -0.00095223256, "MEAN_MOTION_DOT": -0.00055832, "MEAN_MOTION_DDOT": 0}, "tle": {"line1": "1 66583U 25268AC  25344.58336806 -.00055832  00000+0 -95223-3 0  9996", "line2": "2 66583  42.9999 133.6856 0001723 268.7550  68.3119 15.50590492  4327"}}, "geometry": {"type": "Point", "coordinates": [-91.51638225858512, 32.695424479600746]}}, {"type": "Feature", "properties": {"norad_id": 66584, "name": "STARLINK-35939", "group": "last-30-days", "lat": 31.72756692088424, "lon": -89.55080295652631, "alt_km": 410.9115884645653, "timestamp": "2025-12-10T20:49:51.345259+00:00", "meta": {"OBJECT_NAME": "STARLINK-35939", "OBJECT_ID": "2025-268AD", "EPOCH": "2025-12-10T14:00:03.000384", "MEAN_MOTION": 15.50631564, "ECCENTRICITY": 0.00016838, "INCLINATION": 43.0001, "RA_OF_ASC_NODE": 133.6811, "ARG_OF_PERICENTER": 265.7029, "MEAN_ANOMALY": 73.2722, "EPHEMERIS_TYPE": 0, "CLASSIFICATION_TYPE": "U", "NORAD_CAT_ID": 66584, "ELEMENT_SET_NO": 999, "REV_AT_EPOCH": 432, "BSTAR": -0.0023615815, "MEAN_MOTION_DOT": -0.00136751, "MEAN_MOTION_DDOT": 0}, "tle": {"line1": "1 66584U 25268AD  25344.58336806 -.00136751  00000+0 -23616-2 0  9993", "line2": "2 66584  43.0001 133.6811 0001683 265.7029  73.2722 15.50631564  4329"}}, "geometry": {"type": "Point", "coordinates": [-89.55080295652631, 31.72756692088424]}}, {"type": "Feature", "properties": {"norad_id": 66585, "name": "STARLINK-35963", "group": "last-30-days", "lat": 30.735002918475953, "lon": -87.63616251749481, "alt_km": 410.91202579262153, "timestamp": "2025-12-10T20:49:51.345268+00:00", "meta": {"OBJECT_NAME": "STARLINK-35963", "OBJECT_ID": "2025-268AE", "EPOCH": "2025-12-10T14:00:03.000384", "MEAN_MOTION": 15.50628916, "ECCENTRICITY": 0.00014717, "INCLINATION": 43.0002, "RA_OF_ASC_NODE": 133.6765, "ARG_OF_PERICENTER": 263.5252, "MEAN_ANOMALY": 77.3658, "EPHEMERIS_TYPE": 0, "CLASSIFICATION_TYPE": "U", "NORAD_CAT_ID": 66585, "ELEMENT_SET_NO": 999, "REV_AT_EPOCH": 432, "BSTAR": -0.0022573412, "MEAN_MOTION_DOT": -0.00130813, "MEAN_MOTION_DDOT": 0}, "tle": {"line1": "1 66585U 25268AE  25344.58336806 -.00130813  00000+0 -22573-2 0  9998", "line2": "2 66585  43.0002 133.6765 0001471 263.5252  77.3658 15.50628916  4328"}}, "geometry": {"type": "Point", "coordinates": [-87.63616251749481, 30.735002918475953]}}, {"type": "Feature", "properties": {"norad_id": 66586, "name": "TJS-21", "group": "last-30-days", "lat": 58.519806070139396, "lon": -142.05100639276571, "alt_km": 34440.47510555054, "timestamp": "2025-12-10T20:49:51.345280+00:00", "meta": {"OBJECT_NAME": "TJS-21", "OBJECT_ID": "2025-269A", "EPOCH": "2025-12-09T17:35:27.978144", "MEAN_MOTION": 2.00565752, "ECCENTRICITY": 0.68056573, "INCLINATION": 63.268, "RA_OF_ASC_NODE": 162.6671, "ARG_OF_PERICENTER": 269.7843, "MEAN_ANOMALY": 18.6559, "EPHEMERIS_TYPE": 0, "CLASSIFICATION_TYPE": "U", "NORAD_CAT_ID": 66586, "ELEMENT_SET_NO": 999, "REV_AT_EPOCH": 37, "BSTAR": -0.041606579, "MEAN_MOTION_DOT": 1.08e-05, "MEAN_MOTION_DDOT": 0}, "tle": {"line1": "1 66586U 25269A   25343.73296271  .00001080  00000+0 -41607-1 0  9997", "line2": "2 66586  63.2680 162.6671 6805657 269.7843  18.6559  2.00565752   379"}}, "geometry": {"type": "Point", "coordinates": [-142.05100639276571, 58.519806070139396]}}, {"type": "Feature", "properties": {"norad_id": 66587, "name": "CZ-3B R/B", "group": "last-30-days", "lat": 16.60864936983832, "lon": -176.15176282005456, "alt_km": 28367.10889510839, "timestamp": "2025-12-10T20:49:51.345296+00:00", "meta": {"OBJECT_NAME": "CZ-3B R/B", "OBJECT_ID": "2025-269B", "EPOCH": "2025-12-08T20:16:41.011968", "MEAN_MOTION": 2.02868797, "ECCENTRICITY": 0.75197721, "INCLINATION": 51.3469, "RA_OF_ASC_NODE": 170.5472, "ARG_OF_PERICENTER": 228.0184, "MEAN_ANOMALY": 37.9661, "EPHEMERIS_TYPE": 0, "CLASSIFICATION_TYPE": "U", "NORAD_CAT_ID": 66587, "ELEMENT_SET_NO": 999, "REV_AT_EPOCH": 37, "BSTAR": 0.0012608329, "MEAN_MOTION_DOT": 0.00050405, "MEAN_MOTION_DDOT": 4.22103e-07}, "tle": {"line1": "1 66587U 25269B   25342.84491912  .00050405  42210-6  12608-2 0  9998", "line2": "2 66587  51.3469 170.5472 7519772 228.0184  37.9661  2.02868797   372"}}, "geometry": {"type": "Point", "coordinates": [-176.15176282005456, 16.60864936983832]}}, {"type": "Feature", "properties": {"norad_id": 66588, "name": "STARLINK-36076", "group": "last-30-days", "lat": 4.259670756300936, "lon": -151.73283603365283, "alt_km": 414.9772350275289, "timestamp": "2025-12-10T20:49:51.345311+00:00", "meta": {"OBJECT_NAME": "STARLINK-36076", "OBJECT_ID": "2025-270A", "EPOCH": "2025-12-10T14:00:03.000384", "MEAN_MOTION": 15.50668506, "ECCENTRICITY": 0.0001645, "INCLINATION": 42.9998, "RA_OF_ASC_NODE": 205.3477, "ARG_OF_PERICENTER": 236.9923, "MEAN_ANOMALY": 338.8015, "EPHEMERIS_TYPE": 0, "CLASSIFICATION_TYPE": "U", "NORAD_CAT_ID": 66588, "ELEMENT_SET_NO": 999, "REV_AT_EPOCH": 405, "BSTAR": -0.0032535117, "MEAN_MOTION_DOT": -0.00187317, "MEAN_MOTION_DDOT": 0}, "tle": {"line1": "1 66588U 25270A   25344.58336806 -.00187317  00000+0 -32535-2 0  9994", "line2": "2 66588  42.9998 205.3477 0001645 236.9923 338.8015 15.50668506  4053"}}, "geometry": {"type": "Point", "coordinates": [-151.73283603365283, 4.259670756300936]}}]}